[{"OBJECT_NAME":"STARLINK-4443","OBJECT_ID":"2022-099AV","EPOCH":"2025-12-24T20:29:42.860256","MEAN_MOTION":15.05643618,"ECCENTRICITY":0.00014173,"INCLINATION":97.6042,"RA_OF_ASC_NODE":117.4766,"ARG_OF_PERICENTER":92.739,"MEAN_ANOMALY":267.3999,"EPHEMERIS_TYPE":0,"CLASSIFICATION_TYPE":"U","NORAD_CAT_ID":53508,"ELEMENT_SET_NO":999,"REV_AT_EPOCH":18479,"BSTAR":2.0744629e-5,"MEAN_MOTION_DOT":2.39e-6,"MEAN_MOTION_DDOT":0},{"OBJECT_NAME":"STARLINK-4402","OBJECT_ID":"2022-099AW","EPOCH":"2025-12-24T21:05:38.475456","MEAN_MOTION":15.01255089,"ECCENTRICITY":0.00021722,"INCLINATION":97.6029,"RA_OF_ASC_NODE":116.9766,"ARG_OF_PERICENTER":84.588,"MEAN_ANOMALY":275.5592,"EPHEMERIS_TYPE":0,"CLASSIFICATION_TYPE":"U","NORAD_CAT_ID":53509,"ELEMENT_SET_NO":999,"REV_AT_EPOCH":18476,"BSTAR":3.9969411e-5,"MEAN_MOTION_DOT":4.55e-6,"MEAN_MOTION_DDOT":0},{"OBJECT_NAME":"STARLINK-4503","OBJECT_ID":"2022-101B","EPOCH":"2025-12-24T12:44:23.217792","MEAN_MOTION":15.08844206,"ECCENTRICITY":0.00014145,"INCLINATION":53.2194,"RA_OF_ASC_NODE":51.5255,"ARG_OF_PERICENTER":92.8964,"MEAN_ANOMALY":267.219,"EPHEMERIS_TYPE":0,"CLASSIFICATION_TYPE":"U","NORAD_CAT_ID":53528,"ELEMENT_SET_NO":999,"REV_AT_EPOCH":18481,"BSTAR":2.0347937e-5,"MEAN_MOTION_DOT":3.6e-7,"MEAN_MOTION_DDOT":0},{"OBJECT_NAME":"STARLINK-4478","OBJECT_ID":"2022-101C","EPOCH":"2025-12-24T20:30:43.323840","MEAN_MOTION":15.08835321,"ECCENTRICITY":0.00012818,"INCLINATION":53.2196,"RA_OF_ASC_NODE":50.0798,"ARG_OF_PERICENTER":97.8258,"MEAN_ANOMALY":262.288,"EPHEMERIS_TYPE":0,"CLASSIFICATION_TYPE":"U","NORAD_CAT_ID":53529,"ELEMENT_SET_NO":999,"REV_AT_EPOCH":18486,"BSTAR":8.0402561e-5,"MEAN_MOTION_DOT":9.92e-6,"MEAN_MOTION_DDOT":0},{"OBJECT_NAME":"STARLINK-4482","OBJECT_ID":"2022-101D","EPOCH":"2025-12-24T20:51:57.225312","MEAN_MOTION":15.08844809,"ECCENTRICITY":0.00014032,"INCLINATION":53.2183,"RA_OF_ASC_NODE":50.225,"ARG_OF_PERICENTER":90.9246,"MEAN_ANOMALY":269.1906,"EPHEMERIS_TYPE":0,"CLASSIFICATION_TYPE":"U","NORAD_CAT_ID":53530,"ELEMENT_SET_NO":999,"REV_AT_EPOCH":18486,"BSTAR":9.714684e-6,"MEAN_MOTION_DOT":-1.33e-6,"MEAN_MOTION_DDOT":0},{"OBJECT_NAME":"STARLINK-4487","OBJECT_ID":"2022-101E","EPOCH":"2025-12-24T20:25:25.009824","MEAN_MOTION":15.08841719,"ECCENTRICITY":0.00011195,"INCLINATION":53.2185,"RA_OF_ASC_NODE":50.0838,"ARG_OF_PERICENTER":86.2744,"MEAN_ANOMALY":273.8376,"EPHEMERIS_TYPE":0,"CLASSIFICATION_TYPE":"U","NORAD_CAT_ID":53531,"ELEMENT_SET_NO":999,"REV_AT_EPOCH":18486,"BSTAR":1.7685e-8,"MEAN_MOTION_DOT":-2.88e-6,"MEAN_MOTION_DDOT":0},{"OBJECT_NAME":"STARLINK-4483","OBJECT_ID":"2022-101F","EPOCH":"2025-12-24T13:16:09.964704","MEAN_MOTION":15.08868979,"ECCENTRICITY":0.00013271,"INCLINATION":53.2173,"RA_OF_ASC_NODE":51.4218,"ARG_OF_PERICENTER":96.654,"MEAN_ANOMALY":263.4603,"EPHEMERIS_TYPE":0,"CLASSIFICATION_TYPE":"U","NORAD_CAT_ID":53532,"ELEMENT_SET_NO":999,"REV_AT_EPOCH":18482,"BSTAR":-0.00022957021,"MEAN_MOTION_DOT":-3.943e-5,"MEAN_MOTION_DDOT":0},{"OBJECT_NAME":"STARLINK-4493","OBJECT_ID":"2022-101G","EPOCH":"2025-12-24T10:00:07.169760","MEAN_MOTION":15.088329,"ECCENTRICITY":0.0001254,"INCLINATION":53.2175,"RA_OF_ASC_NODE":52.0252,"ARG_OF_PERICENTER":96.3993,"MEAN_ANOMALY":263.7142,"EPHEMERIS_TYPE":0,"CLASSIFICATION_TYPE":"U","NORAD_CAT_ID":53533,"ELEMENT_SET_NO":999,"REV_AT_EPOCH":18480,"BSTAR":-0.00013334563,"MEAN_MOTION_DOT":-2.409e-5,"MEAN_MOTION_DDOT":0},{"OBJECT_NAME":"STARLINK-4138","OBJECT_ID":"2022-101J","EPOCH":"2025-12-24T21:02:31.397856","MEAN_MOTION":15.08854046,"ECCENTRICITY":9.713e-5,"INCLINATION":53.217,"RA_OF_ASC_NODE":49.9713,"ARG_OF_PERICENTER":53.3899,"MEAN_ANOMALY":306.7182,"EPHEMERIS_TYPE":0,"CLASSIFICATION_TYPE":"U","NORAD_CAT_ID":53535,"ELEMENT_SET_NO":999,"REV_AT_EPOCH":18487,"BSTAR":0.00050757501,"MEAN_MOTION_DOT":7.803e-5,"MEAN_MOTION_DDOT":0},{"OBJECT_NAME":"STARLINK-4053","OBJECT_ID":"2022-101K","EPOCH":"2025-12-24T20:26:43.484352","MEAN_MOTION":15.08850721,"ECCENTRICITY":0.00012866,"INCLINATION":53.2183,"RA_OF_ASC_NODE":40.0038,"ARG_OF_PERICENTER":87.106,"MEAN_ANOMALY":273.0079,"EPHEMERIS_TYPE":0,"CLASSIFICATION_TYPE":"U","NORAD_CAT_ID":53536,"ELEMENT_SET_NO":999,"REV_AT_EPOCH":18500,"BSTAR":-1.904982e-5,"MEAN_MOTION_DOT":-5.91e-6,"MEAN_MOTION_DDOT":0},{"OBJECT_NAME":"STARLINK-4120","OBJECT_ID":"2022-101L","EPOCH":"2025-12-24T21:03:53.155584","MEAN_MOTION":15.0884228,"ECCENTRICITY":0.00013143,"INCLINATION":53.2194,"RA_OF_ASC_NODE":49.9364,"ARG_OF_PERICENTER":87.3134,"MEAN_ANOMALY":272.8008,"EPHEMERIS_TYPE":0,"CLASSIFICATION_TYPE":"U","NORAD_CAT_ID":53537,"ELEMENT_SET_NO":999,"REV_AT_EPOCH":18487,"BSTAR":4.2458989e-5,"MEAN_MOTION_DOT":3.88e-6,"MEAN_MOTION_DDOT":0},{"OBJECT_NAME":"STARLINK-4118","OBJECT_ID":"2022-101M","EPOCH":"2025-12-25T00:00:02.999808","MEAN_MOTION":15.35649888,"ECCENTRICITY":0.0001427,"INCLINATION":53.2283,"RA_OF_ASC_NODE":37.4204,"ARG_OF_PERICENTER":91.2553,"MEAN_ANOMALY":283.8509,"EPHEMERIS_TYPE":0,"CLASSIFICATION_TYPE":"U","NORAD_CAT_ID":53538,"ELEMENT_SET_NO":999,"REV_AT_EPOCH":580,"BSTAR":0.029225258,"MEAN_MOTION_DOT":0.01126882,"MEAN_MOTION_DDOT":0},{"OBJECT_NAME":"STARLINK-4123","OBJECT_ID":"2022-101N","EPOCH":"2025-12-24T13:00:17.042688","MEAN_MOTION":15.08841181,"ECCENTRICITY":6.911e-5,"INCLINATION":53.2183,"RA_OF_ASC_NODE":51.4725,"ARG_OF_PERICENTER":53.3359,"MEAN_ANOMALY":306.7697,"EPHEMERIS_TYPE":0,"CLASSIFICATION_TYPE":"U","NORAD_CAT_ID":53539,"ELEMENT_SET_NO":999,"REV_AT_EPOCH":18482,"BSTAR":8.6858055e-5,"MEAN_MOTION_DOT":1.095e-5,"MEAN_MOTION_DDOT":0},{"OBJECT_NAME":"STARLINK-4486","OBJECT_ID":"2022-101P","EPOCH":"2025-12-24T19:40:31.252224","MEAN_MOTION":15.08823608,"ECCENTRICITY":9.711e-5,"INCLINATION":53.2192,"RA_OF_ASC_NODE":40.5838,"ARG_OF_PERICENTER":113.7512,"MEAN_ANOMALY":246.3582,"EPHEMERIS_TYPE":0,"CLASSIFICATION_TYPE":"U","NORAD_CAT_ID":53540,"ELEMENT_SET_NO":999,"REV_AT_EPOCH":18568,"BSTAR":-0.00017122983,"MEAN_MOTION_DOT":-3.011e-5,"MEAN_MOTION_DDOT":0},{"OBJECT_NAME":"STARLINK-4485","OBJECT_ID":"2022-101Q","EPOCH":"2025-12-24T12:49:41.060064","MEAN_MOTION":15.08848388,"ECCENTRICITY":0.00013932,"INCLINATION":53.2192,"RA_OF_ASC_NODE":51.5058,"ARG_OF_PERICENTER":92.6295,"MEAN_ANOMALY":267.4857,"EPHEMERIS_TYPE":0,"CLASSIFICATION_TYPE":"U","NORAD_CAT_ID":53541,"ELEMENT_SET_NO":999,"REV_AT_EPOCH":18551,"BSTAR":3.0724076e-5,"MEAN_MOTION_DOT":2.01e-6,"MEAN_MOTION_DDOT":0},{"OBJECT_NAME":"STARLINK-4489","OBJECT_ID":"2022-101R","EPOCH":"2025-12-24T20:16:08.881536","MEAN_MOTION":15.08840988,"ECCENTRICITY":0.00013933,"INCLINATION":53.2172,"RA_OF_ASC_NODE":40.1166,"ARG_OF_PERICENTER":85.8481,"MEAN_ANOMALY":274.2671,"EPHEMERIS_TYPE":0,"CLASSIFICATION_TYPE":"U","NORAD_CAT_ID":53542,"ELEMENT_SET_NO":999,"REV_AT_EPOCH":18569,"BSTAR":0.00017226044,"MEAN_MOTION_DOT":2.455e-5,"MEAN_MOTION_DDOT":0}]
