STARLINK-4443           
1 53508U 22099AV  25358.85396829  .00000239  00000+0  20745-4 0  9991
2 53508  97.6042 117.4766 0001417  92.7390 267.3999 15.05643618184799
STARLINK-4402           
1 53509U 22099AW  25358.87891754  .00000455  00000+0  39969-4 0  9999
2 53509  97.6029 116.9766 0002172  84.5880 275.5592 15.01255089184765
STARLINK-4503           
1 53528U 22101B   25358.53082428  .00000036  00000+0  20348-4 0  9993
2 53528  53.2194  51.5255 0001414  92.8964 267.2190 15.08844206184817
STARLINK-4478           
1 53529U 22101C   25358.85466810  .00000992  00000+0  80403-4 0  9999
2 53529  53.2196  50.0798 0001281  97.8258 262.2880 15.08835321184863
STARLINK-4482           
1 53530U 22101D   25358.86941233 -.00000133  00000+0  97147-5 0  9991
2 53530  53.2183  50.2250 0001403  90.9246 269.1906 15.08844809184869
STARLINK-4487           
1 53531U 22101E   25358.85098391 -.00000288  00000+0  17685-7 0  9991
2 53531  53.2185  50.0838 0001119  86.2744 273.8376 15.08841719184867
STARLINK-4483           
1 53532U 22101F   25358.55289311 -.00003943  00000+0 -22957-3 0  9999
2 53532  53.2173  51.4218 0001327  96.6540 263.4603 15.08868979184823
STARLINK-4493           
1 53533U 22101G   25358.41674965 -.00002409  00000+0 -13335-3 0  9994
2 53533  53.2175  52.0252 0001254  96.3993 263.7142 15.08832900184803
STARLINK-4138           
1 53535U 22101J   25358.87675229  .00007803  00000+0  50758-3 0  9991
2 53535  53.2170  49.9713 0000971  53.3899 306.7182 15.08854046184874
STARLINK-4053           
1 53536U 22101K   25358.85189218 -.00000591  00000+0 -19050-4 0  9998
2 53536  53.2183  40.0038 0001286  87.1060 273.0079 15.08850721185009
STARLINK-4120           
1 53537U 22101L   25358.87769856  .00000388  00000+0  42459-4 0  9994
2 53537  53.2194  49.9364 0001314  87.3134 272.8008 15.08842280184872
STARLINK-4118           
1 53538U 22101M   25359.00003472  .01126882  00000+0  29225-1 0  9998
2 53538  53.2283  37.4204 0001427  91.2553 283.8509 15.35649888  5803
STARLINK-4123           
1 53539U 22101N   25358.54186392  .00001095  00000+0  86858-4 0  9995
2 53539  53.2183  51.4725 0000691  53.3359 306.7697 15.08841181184825
STARLINK-4486           
1 53540U 22101P   25358.81980616 -.00003011  00000+0 -17123-3 0  9998
2 53540  53.2192  40.5838 0000971 113.7512 246.3582 15.08823608185685
STARLINK-4485           
1 53541U 22101Q   25358.53450301  .00000201  00000+0  30724-4 0  9990
2 53541  53.2192  51.5058 0001393  92.6295 267.4857 15.08848388185517
STARLINK-4489           
1 53542U 22101R   25358.84454724  .00002455  00000+0  17226-3 0  9992
2 53542  53.2172  40.1166 0001393  85.8481 274.2671 15.08840988185698
